{
    "links": {
        "self": "http://www.neowsapp.com/rest/v1/neo/3719319?api_key=iIulBulltgU6a56xZRHN4H3l9WmuAYTsLGpBGhQ2"
    },
    "id": "3719319",
    "neo_reference_id": "3719319",
    "name": "(2015 KM18)",
    "designation": "2015 KM18",
    "nasa_jpl_url": "http://ssd.jpl.nasa.gov/sbdb.cgi?sstr=3719319",
    "absolute_magnitude_h": 24.4,
    "estimated_diameter": {
        "kilometers": {
            "estimated_diameter_min": 0.0350392641,
            "estimated_diameter_max": 0.0783501764
        },
        "meters": {
            "estimated_diameter_min": 35.0392641108,
            "estimated_diameter_max": 78.3501764334
        },
        "miles": {
            "estimated_diameter_min": 0.0217723826,
            "estimated_diameter_max": 0.0486845275
        },
        "feet": {
            "estimated_diameter_min": 114.9582192654,
            "estimated_diameter_max": 257.0543928497
        }
    },
    "is_potentially_hazardous_asteroid": false,
    "close_approach_data": [
        {
            "close_approach_date": "2008-06-05",
            "close_approach_date_full": "2008-Jun-05 21:17",
            "epoch_date_close_approach": 1212700620000,
            "relative_velocity": {
                "kilometers_per_second": "13.810276102",
                "kilometers_per_hour": "49716.9939670423",
                "miles_per_hour": "30892.2066124658"
            },
            "miss_distance": {
                "astronomical": "0.3637576123",
                "lunar": "141.5017111847",
                "kilometers": "54417363.996365801",
                "miles": "33813382.0399820138"
            },
            "orbiting_body": "Earth"
        },
        {
            "close_approach_date": "2015-05-17",
            "close_approach_date_full": "2015-May-17 07:54",
            "epoch_date_close_approach": 1431849240000,
            "relative_velocity": {
                "kilometers_per_second": "10.0998033333",
                "kilometers_per_hour": "36359.2919999833",
                "miles_per_hour": "22592.250076323"
            },
            "miss_distance": {
                "astronomical": "0.0585232567",
                "lunar": "22.7655468563",
                "kilometers": "8754954.547783229",
                "miles": "5440076.4962934002"
            },
            "orbiting_body": "Earth"
        },
        {
            "close_approach_date": "2022-04-30",
            "close_approach_date_full": "2022-Apr-30 18:58",
            "epoch_date_close_approach": 1651345080000,
            "relative_velocity": {
                "kilometers_per_second": "14.0894062007",
                "kilometers_per_hour": "50721.8623225729",
                "miles_per_hour": "31516.5927303787"
            },
            "miss_distance": {
                "astronomical": "0.3036491508",
                "lunar": "118.1195196612",
                "kilometers": "45425266.186988796",
                "miles": "28225951.5538295448"
            },
            "orbiting_body": "Earth"
        },
        {
            "close_approach_date": "2114-06-03",
            "close_approach_date_full": "2114-Jun-03 12:52",
            "epoch_date_close_approach": 4557473520000,
            "relative_velocity": {
                "kilometers_per_second": "12.5190839275",
                "kilometers_per_hour": "45068.7021390259",
                "miles_per_hour": "28003.9388374409"
            },
            "miss_distance": {
                "astronomical": "0.3011343028",
                "lunar": "117.1412437892",
                "kilometers": "45049050.282815036",
                "miles": "27992181.8310220568"
            },
            "orbiting_body": "Earth"
        }
    ],
    "orbital_data": {
        "orbit_id": "6",
        "orbit_determination_date": "2017-04-06 08:33:42",
        "first_observation_date": "2015-05-19",
        "last_observation_date": "2015-05-25",
        "data_arc_in_days": 6,
        "observations_used": 47,
        "orbit_uncertainty": "8",
        "minimum_orbit_intersection": ".0543395",
        "jupiter_tisserand_invariant": "4.567",
        "epoch_osculation": "2457162.5",
        "eccentricity": ".2642372004130323",
        "semi_major_axis": "1.445233773048431",
        "inclination": "17.95036057280435",
        "ascending_node_longitude": "233.6125253482251",
        "orbital_period": "634.60805413732",
        "perihelion_distance": "1.06334924691575",
        "perihelion_argument": "8.05178032921895",
        "aphelion_distance": "1.827118299181112",
        "perihelion_time": "2457166.705421406306",
        "mean_anomaly": "357.6143515727543",
        "mean_motion": ".5672792799476529",
        "equinox": "J2000",
        "orbit_class": {
            "orbit_class_type": "AMO",
            "orbit_class_description": "Near-Earth asteroid orbits similar to that of 1221 Amor",
            "orbit_class_range": "1.017 AU < q (perihelion) < 1.3 AU"
        }
    },
    "is_sentry_object": false
}